NOAA 15                 
1 25338U 98030A   22254.50430798  .00000106  00000+0  62654-4 0  9995
2 25338  98.6396 282.8949 0011193  51.3621 308.8559 14.26169085265530
NOAA 18                 
1 28654U 05018A   22254.46849738  .00000152  00000+0  10562-3 0  9997
2 28654  98.9430 324.8124 0015295  89.3328 270.9596 14.12773836892211
NOAA 19                 
1 33591U 09005A   22254.47948648  .00000125  00000+0  92544-4 0  9995
2 33591  99.1421 290.3988 0013071 308.9903  51.0103 14.12607510700590
METOP-B                 
1 38771U 12049A   22254.45074074  .00000071  00000+0  52312-4 0  9992
2 38771  98.6882 312.8995 0001568 124.3469  44.9435 14.21506188517946
SARAL                   
1 39086U 13009A   22253.84067618  .00000043  00000+0  32173-4 0  9999
2 39086  98.5494  78.2198 0001875  53.3251 306.8105 14.32060992498709
METOP-C                 
1 43689U 18087A   22254.45464365  .00000072  00000+0  52972-4 0  9993
2 43689  98.6764 313.0141 0003508 136.2848 223.8608 14.21506109199527
ANGELS                  
1 44876U 19092D   22254.08751447  .00002352  00000+0  11788-3 0  9990
2 44876  97.4765  76.4318 0013340  63.3930 296.8669 15.18267067151234
